SOYUZ-MS 28             
1 66664U 25275A   25353.44148582  .00006778  00000+0  12809-3 0  9993
2 66664  51.6317 109.2912 0003173 271.3280  88.7345 15.49667075  3484
1998-067XS              
1 66906U 98067XS  25353.36683698  .00020670  00000+0  35748-3 0  9998
2 66906  51.6312 109.5436 0003058 233.4927 126.5781 15.50914025  2645
1998-067XT              
1 66907U 98067XT  25353.48808759  .00047666  00000+0  77339-3 0  9995
2 66907  51.6306 108.8528 0003998 265.7173  94.3360 15.52255247  2660
1998-067XU              
1 66908U 98067XU  25352.58606995  .00054298  00000+0  87908-3 0  9996
2 66908  51.6306 113.3296 0003983 260.0245 100.0295 15.52259493  2520
SILVERSAT               
1 66909U 98067XV  25353.55080352  .00049748  00000+0  79912-3 0  9998
2 66909  51.6306 108.5226 0003839 268.6960  91.3590 15.52516520  2671
1998-067XW              
1 66910U 98067XW  25353.54901825  .00043130  00000+0  69409-3 0  9995
2 66910  51.6305 108.5102 0004382 243.3936 116.6605 15.52526300  2677
1998-067XX              
1 66911U 98067XX  25353.48246882  .00054082  00000+0  85487-3 0  9996
2 66911  51.6303 108.8169 0003973 252.7574 107.2982 15.52926927  2650
1998-067XY              
1 66912U 98067XY  25353.61960698  .00038197  00000+0  63264-3 0  9998
2 66912  51.6307 108.2310 0004012 260.8810  99.1725 15.51780846  2678
